[{"OBJECT_NAME":"IRIDIUM 179","OBJECT_ID":"2023-068W","EPOCH":"2026-03-09T22:21:59.547744","MEAN_MOTION":14.80238607,"ECCENTRICITY":0.00023232,"INCLINATION":86.672,"RA_OF_ASC_NODE":75.5287,"ARG_OF_PERICENTER":95.2951,"MEAN_ANOMALY":264.8536,"EPHEMERIS_TYPE":0,"CLASSIFICATION_TYPE":"U","NORAD_CAT_ID":56730,"ELEMENT_SET_NO":999,"REV_AT_EPOCH":15168,"BSTAR":8.1626328e-5,"MEAN_MOTION_DOT":6.46e-6,"MEAN_MOTION_DDOT":0},{"OBJECT_NAME":"SL-14 R\/B","OBJECT_ID":"1985-108B","EPOCH":"2026-03-09T21:05:05.780832","MEAN_MOTION":14.85518992,"ECCENTRICITY":0.00175913,"INCLINATION":82.5063,"RA_OF_ASC_NODE":0.8915,"ARG_OF_PERICENTER":280.8668,"MEAN_ANOMALY":141.1022,"EPHEMERIS_TYPE":0,"CLASSIFICATION_TYPE":"U","NORAD_CAT_ID":16263,"ELEMENT_SET_NO":999,"REV_AT_EPOCH":15595,"BSTAR":8.2154838e-5,"MEAN_MOTION_DOT":7.35e-6,"MEAN_MOTION_DDOT":0}]
